{
  "norad_id": 62680,
  "name": "FLOCK 4G-18",
  "history": [
    {
      "epoch": "2026-03-28T18:40:45.321312Z",
      "apogee_km": 485.3740249720522,
      "perigee_km": 479.8566079591501,
      "latitude_deg": 4.740384327593242e-05,
      "longitude_deg": 63.567089413572695,
      "height_km": 487.036461493966,
      "semi_major_axis_km": 6860.7523164656,
      "eccentricity": 0.0004021,
      "inclination_deg": 97.4037,
      "raan_deg": 169.9498,
      "arg_perigee_deg": 241.5173,
      "mean_anomaly_deg": 118.5662,
      "mean_motion_rev_day": 15.27724877
    },
    {
      "epoch": "2026-03-29T04:06:39.760128Z",
      "apogee_km": 485.331231346564,
      "perigee_km": 479.79464649585407,
      "latitude_deg": -5.0363811368826176e-05,
      "longitude_deg": -77.90657614383281,
      "height_km": 487.0462402431717,
      "semi_major_axis_km": 6860.699938921209,
      "eccentricity": 0.0004035,
      "inclination_deg": 97.4039,
      "raan_deg": 170.3403,
      "arg_perigee_deg": 240.1525,
      "mean_anomaly_deg": 119.9313,
      "mean_motion_rev_day": 15.27742372
    },
    {
      "epoch": "2026-03-29T22:58:27.819552Z",
      "apogee_km": 485.3054613579943,
      "perigee_km": 479.67700195674297,
      "latitude_deg": -5.580156312696039e-05,
      "longitude_deg": -0.8512128924587905,
      "height_km": 487.1494137208344,
      "semi_major_axis_km": 6860.628231657369,
      "eccentricity": 0.0004102,
      "inclination_deg": 97.4037,
      "raan_deg": 171.1206,
      "arg_perigee_deg": 236.5155,
      "mean_anomaly_deg": 123.5692,
      "mean_motion_rev_day": 15.27766324
    }
  ]
}